#cP2017  5  4  0  0  0.00000000      96 ORBIT IGS14 HLM  IGS
## 1947 345600.00000000   900.00000000 57877 0.0000000000000
+   32   G01G02G03G04G05G06G07G08G09G10G11G12G13G14G15G16G17
+        G18G19G20G21G22G23G24G25G26G27G28G29G30G31G32  0  0
+          0  0  0  0  0  0  0  0  0  0  0  0  0  0  0  0  0
+          0  0  0  0  0  0  0  0  0  0  0  0  0  0  0  0  0
+          0  0  0  0  0  0  0  0  0  0  0  0  0  0  0  0  0
++         2  2  2  0  2  2  2  2  3  2  3  2  2  2  2  2  2
++         2  3  2  2  2  2  2  2  2  2  2  2  2  2  2  0  0
++         0  0  0  0  0  0  0  0  0  0  0  0  0  0  0  0  0
++         0  0  0  0  0  0  0  0  0  0  0  0  0  0  0  0  0
++         0  0  0  0  0  0  0  0  0  0  0  0  0  0  0  0  0
%c G  cc GPS ccc cccc cccc cccc cccc ccccc ccccc ccccc ccccc
%c cc cc ccc ccc cccc cccc cccc cccc ccccc ccccc ccccc ccccc
%f  1.2500000  1.025000000  0.00000000000  0.000000000000000
%f  0.0000000  0.000000000  0.00000000000  0.000000000000000
%i    0    0    0    0      0      0      0      0         0
%i    0    0    0    0      0      0      0      0         0
/* RAPID ORBIT COMBINATION FROM WEIGHTED AVERAGE OF:        
/* cod emr esa gfz jpl ngs sio usn whu                      
/* REFERENCED TO IGS TIME (IGST) AND TO WEIGHTED MEAN POLE: 
/* PCV:IGS14_1930 OL/AL:FES2004  NONE     Y  ORB:CMB CLK:CMB
*  2017  5  4  6 45  0.00000000
PG01 -10641.930469  20746.592998 -12569.301615     54.183830  5  8  6 125       
PG02  21265.499316 -13898.603296  -6648.558542    426.698491  6  6  8  93       
PG03  -1199.174720  15518.488837 -21527.092131   -102.011837  4  8  6  84       
PG04 -25520.720280  -7090.034327   3216.900418 999999.999999
PG05  21212.721271  -4778.142102  15308.483907    -47.649540  3  6  6 107       
PG06  19391.083826   -452.823773 -18128.007746    346.307541  9  6  8  93       
PG07   2797.918513  16493.696947  20700.993391    355.347009  5  9  7  78       
PG08  -7391.977027  19590.740768  16337.054787    -58.539374  5  6 10  89       
PG09   8256.300299  24889.551933   4150.773379    356.045007  6 11  6  97       
PG10 -24115.317745 -10706.067631   3565.746403    -62.237121     8  6  88       
PG11  -9325.844389  24766.908221  -3132.119826   -685.701896  6 10  7 110       
PG12   7034.131842 -12935.463939 -22253.702460    384.266933  8  8  4  99       
PG13  12447.604828 -12703.594159  19624.046846    -80.489511  5  6  3  92       
PG14 -15261.281790  -5362.585999 -20826.469335    -69.406391  6  8  3  59       
PG15   4291.419727 -22215.429774  13447.753333   -349.218492  4  7  4  87       
PG16 -21768.485159   1633.881523  15285.336337     32.608366  6  7  4  86       
PG17  13676.928019  15065.083443 -16796.211669   -181.208210  6  8  7  88       
PG18 -18009.908009 -15316.036349  12888.230139    613.752577  5 11  3  74       
PG19  15021.075973   6280.820756 -21194.764284   -504.942682  8  4  5  87       
PG20   6158.868453 -14785.701862  21042.401061    470.839244  4  5  6  58       
PG21  -9343.611719 -13179.801895  21864.690874   -508.970118  3  6  4 105       
PG22 -12083.735118  12245.612620 -19999.811367     21.075635     5  3 124       
PG23    155.700079  25333.405155  -6949.635379   -211.115905  3 10  6  86       
PG24  12274.102645 -21279.087876  -9873.207094    -34.301226  6  6  5 100       
PG25  -8938.230616 -16575.490870 -18966.401070   -381.194542  8  5  6 112       
PG26 -25602.522763  -3743.877966   6194.345304   -507.970001  3  8  8  76       
PG27 -13324.324603   7758.922295  21548.790676    251.627718  5  5  7 103       
PG28  21334.338271  14380.387825   7213.107360    610.020489  3  8  8  95       
PG29  -4696.539062 -26117.655764   1489.806190    607.279723  4  8  4  80       
PG30  14647.874956   7562.115711  20842.653671    157.659823  7  5  4  85       
PG31 -20620.617951   2014.744192 -16769.560467    203.252629  5  5  4 113       
PG32 -15174.891583 -13244.403056 -17320.603576   -403.852749  5  7  7 107       
*  2017  5  4  7  0  0.00000000
PG01 -11736.125629  21464.655633 -10105.469654     54.184266  5  8  7 114       
PG02  20803.865439 -12976.729798  -9287.153797    426.691558  7  5  8  89       
PG03  -3574.559026  14819.637372 -21752.332225   -102.010379  4  8  6  62       
PG04 -25681.567825  -7326.764880    345.221311 999999.999999
PG05  22731.956989  -4125.981777  13201.122776    -47.647916  3  4  7  95       
PG06  17903.710262   1117.184522 -19568.507804    346.312133 10  6  8  74       
PG07   1027.059305  17937.002444  19588.325382    355.343188  5  9  7  63       
PG08  -8005.380001  17719.885130  18103.402527    -58.540392  6  6  9 104       
PG09   8065.701047  25262.415729   1330.770891    356.052155  6 11  5  95       
PG10 -23507.513875 -10778.040559   6338.208446    -62.229038  2  8  6  76       
PG11  -9765.459812  24730.207172   -414.084657   -685.703688  6 10  7 115       
PG12   9357.008488 -12052.870483 -21869.472879    384.266216  8  8  4  99       
PG13  12800.575050 -10400.972019  20711.306231    -80.490518  5  6  3  82       
PG14 -15546.450598  -7726.766426 -19877.637754    -69.407716  5  9  3  95       
PG15   5061.561340 -20671.642682  15496.471502   -349.219361  3  7  4  85       
PG16 -23241.166125    943.315779  13065.788565     32.609377  5  7  4  95       
PG17  13878.333263  16917.957847 -14803.786819   -181.206700  5  9  7  78       
PG18 -16486.258022 -15178.954803  14994.355097    613.754578  5 11  3  52       
PG19  15252.709262   8584.558656 -20158.989582   -504.941437  9  4  4  95       
PG20   8524.252301 -14251.789793  20583.374637    470.840315  3  5  6  75       
PG21  -7679.292697 -14801.273463  21445.051182   -508.968144  3  7  4 109       
PG22 -14269.458012  11549.806108 -18965.779548     21.064668     6  4 101       
PG23   -382.724875  24447.414620  -9576.565566   -211.116608  3  9  6  78       
PG24  13170.618971 -21766.888402  -7270.240822    -34.300804  5  5  6  89       
PG25  -6804.068519 -16010.233025 -20282.768689   -381.200474  8  5  6 104       
PG26 -26061.528585  -4134.394174   3417.993052   -507.966711  4  7  7  76       
PG27 -13939.790606   5340.515810  21909.826087    251.633648  4  5  6 109       
PG28  20443.251629  14192.216657   9900.969636    610.023005  4  8  8  83       
PG29  -4505.762382 -26156.544509  -1404.059731    607.276913  5  8  4  88       
PG30  12820.071024   9149.297545  21391.441821    157.659152  7  5  4  67       
PG31 -19190.744368    593.167472 -18449.775735    203.250610  6  6  4  77       
PG32 -15451.897192 -15108.740054 -15455.259669   -403.862501  5  7  8 111       
*  2017  5  4  7 15  0.00000000
PG01 -12592.141088  22029.518106  -7465.924086     54.184695  6  7  7 122       
PG02  20196.500689 -11808.023025 -11759.576899    426.684696  8  6  8  96       
PG03  -5987.516214  14244.005863 -21603.383512   -102.008925  4  7  7  93       
PG04 -25542.582643  -7469.420261  -2532.323890 999999.999999
PG05  24036.456120  -3606.440247  10867.801126    -47.646242  4  3  7 102       
PG06  16402.761820   2869.122620 -20671.761697    346.316659 10  6  7  97       
PG07   -567.941186  19370.330348  18139.354313    355.339600  5  9  7  95       
PG08  -8770.414598  15710.790137  19558.473315    -58.542195  7  6  9  86       
PG09   7800.165970  25338.200533  -1512.159260    356.059205  6 11  5 100       
PG10 -22605.652737 -10811.240549   9002.385959    -62.220874  2  8  6  75       
PG11 -10101.747120  24426.241185   2311.002631   -685.706140  7  9  7 115       
PG12  11666.918528 -11321.446202 -21113.417503    384.265694  8  7  5 101       
PG13  13293.949714  -8017.833410  21438.793174    -80.491901  5  6  4  89       
PG14 -15926.665580  -9944.800816 -18580.176734    -69.409237  5  9  3  89       
PG15   5977.767813 -18961.884217  17271.364117   -349.219781  2  6  4  90       
PG16 -24498.454550    420.172594  10624.335067     32.610118  5  7  5  99       
PG17  14123.413995  18518.118224 -12552.485100   -181.205508  4  9  7  92       
PG18 -14745.915078 -15071.701316  16853.830976    613.756698  6 10  3  81       
PG19  15584.433593  10742.527619 -18781.630854   -504.940164  9  5  3  89       
PG20  10839.844545 -13838.152448  19765.619028    470.841883  3  6  7  84       
PG21  -6139.852242 -16458.593537  20680.451339   -508.965544  2  7  4 117       
PG22 -16349.211412  10981.288934 -17599.247167     21.053756     6  4 121       
PG23  -1048.959583  23309.869379 -12032.946285   -211.117277  4  9  6  84       
PG24  13842.124687 -22072.017511  -4540.732300    -34.301985  5  4  6  95       
PG25  -4515.589490 -15533.635817 -21256.369851   -381.206445  8  5  5 102       
PG26 -26231.078967  -4430.522036    583.125568   -507.963358  4  7  7 103       
PG27 -14690.337182   2942.340705  21891.813585    251.639528  4  6  5 100       
PG28  19269.062025  13962.365213  12422.700019    610.025495  5  8  8  95       
PG29  -4241.797016 -25888.044828  -4273.811220    607.274108  6  8  5  94       
PG30  11043.101318  10855.201585  21572.319432    157.658506  7  6  4  87       
PG31 -17715.216189  -1026.929333 -19814.890799    203.248613  6  7  3  81       
PG32 -15759.113903 -16739.608186 -13324.197853   -403.872313  5  6  8  97       
EOF
